BEIDOU-2 M4             
1 38251U 12018B   26169.19490603 -.00000076  00000+0  00000+0 0  9999
2 38251  55.6572 304.0554 0011297 275.6093  84.2520  1.86229337 95965
ARIRANG-3 (KOMPSAT-3)   
1 38338U 12025B   26169.74347485  .00000328  00000+0  74422-4 0  9996
2 38338  98.1171 127.1765 0006717 105.4318 254.7626 14.62207297751573
METOP-B                 
1 38771U 12049A   26169.66784241  .00000087  00000+0  59817-4 0  9992
2 38771  98.6504 221.1376 0002144  15.8743 344.2501 14.21433134713478
SJ-9A                   
1 38860U 12056A   26169.64637324  .00000750  00000+0  92618-4 0  9999
2 38860  97.6709 141.5450 0024026 251.5625 108.2978 14.85480837699800
COSMOS 2484 (RODNIK-S 6)
1 39059U 13001C   26169.75594775  .00000058  00000+0  34607-3 0  9999
2 39059  82.5008 220.9175 0026811  33.2666 327.0092 12.42939412608757
SARAL                   
1 39086U 13009A   26169.64701801  .00000061  00000+0  38350-4 0  9999
2 39086  98.5557 356.1957 0000662 299.0378  61.0740 14.32856264695813
STRAND-1                
1 39090U 13009E   26169.72693088  .00000194  00000+0  79602-4 0  9992
2 39090  98.3923 349.9234 0007804 220.1282 139.9329 14.37163972697288
BRITE-AUSTRIA           
1 39091U 13009F   26169.32256041  .00000128  00000+0  58246-4 0  9991
2 39091  98.3995 348.7300 0009190 232.6910 127.3439 14.36542508697216
GAOFEN-1                
1 39150U 13018A   26169.75718605  .00000423  00000+0  67866-4 0  9999
2 39150  97.9094 241.7934 0015684 260.9577  98.9858 14.76537781708470
NEE-01 PEGASO           
1 39151U 13018B   26169.33746021  .00002315  00000+0  22456-3 0  9994
2 39151  98.1225 313.5252 0013220 155.6183 204.5663 14.93664438710873
PROBA-V                 
1 39159U 13021A   26169.38428133  .00000046  00000+0  38301-4 0  9998
2 39159  98.3584 147.9318 0005185 120.6226 239.5465 14.23597149681281
ARIRANG-5 (KOMPSAT-5)   
1 39227U 13042A   26169.76232530  .00000544  00000+0  43192-4 0  9990
2 39227  97.6200 356.4405 0005432 116.4449 243.7335 15.04494499704095
GONETS-M 5              
1 39249U 13048A   26169.72484978 -.00000066  00000+0 -55063-3 0  9991
2 39249  82.4829 342.4228 0016162 206.9175 153.1067 12.42891525579073
GONETS-M 7              
1 39251U 13048C   26169.76827484  .00000000  00000+0 -71186-4 0  9993
2 39251  82.4895 345.3189 0016936 208.1861 151.8303 12.42914627579035
FENGYUN 3C              
1 39260U 13052A   26169.73997826  .00000077  00000+0  60269-4 0  9996
2 39260  98.4987 143.5435 0015166  23.3583 336.8278 14.15755395658781
CASSIOPE                
1 39265U 13055A   26169.67089595  .00042638 -52736-6  46432-3 0  9997
2 39265  80.9137  64.9200 0292321  57.4682 305.4430 15.25314777667894
APRIZESAT 7             
1 39416U 13066A   26169.36149500  .00000949  00000+0  99276-4 0  9999
2 39416  97.7709 122.5645 0035090 205.3037 154.6464 14.91566307681407
ZACUBE-1 (TSHEPISOSAT)  
1 39417U 13066B   26169.34046199  .00002374  00000+0  18681-3 0  9992
2 39417  97.8077 131.6833 0040949 243.7163 115.9851 15.01194004680909
APRIZESAT 8             
1 39425U 13066K   26169.28488904  .00000746  00000+0  86790-4 0  9996
2 39425  97.8221 116.7374 0044401 282.8265  76.7992 14.87654398679837
TRITON-1                
1 39427U 13066M   26169.71378370  .00001711  00000+0  20987-3 0  9999
2 39427  97.8249  79.4866 0088541 228.8682 130.4866 14.81710808674315
